{"fetched_at":"2026-07-16T06:43:09.375Z","source":"https://celestrak.org/NORAD/elements/gp.php?NAME=NUSAT&FORMAT=JSON","constellation":"satellogic","records":[{"OBJECT_NAME":"NUSAT-47","OBJECT_ID":"2025-276CF","EPOCH":"2026-07-15T04:48:34.480512","CLASSIFICATION_TYPE":"U","MEAN_MOTION":15.20584758,"ECCENTRICITY":0.00004874,"INCLINATION":97.4183,"RA_OF_ASC_NODE":269.3661,"ARG_OF_PERICENTER":196.8829,"MEAN_ANOMALY":163.239,"EPHEMERIS_TYPE":0,"NORAD_CAT_ID":66743,"ELEMENT_SET_NO":999,"REV_AT_EPOCH":3468,"BSTAR":0.00014386119,"MEAN_MOTION_DOT":0.00003083,"MEAN_MOTION_DDOT":0},{"OBJECT_NAME":"NUSAT-53 (JANE GOODALL)","OBJECT_ID":"2026-067S","EPOCH":"2026-07-15T20:39:08.672256","CLASSIFICATION_TYPE":"U","MEAN_MOTION":15.18853459,"ECCENTRICITY":0.00005381,"INCLINATION":97.4576,"RA_OF_ASC_NODE":154.9716,"ARG_OF_PERICENTER":342.3074,"MEAN_ANOMALY":17.8141,"EPHEMERIS_TYPE":0,"NORAD_CAT_ID":68432,"ELEMENT_SET_NO":999,"REV_AT_EPOCH":1629,"BSTAR":0.00013764948,"MEAN_MOTION_DOT":0.000028,"MEAN_MOTION_DDOT":0},{"OBJECT_NAME":"NUSAT-54 (BRANCA MARQUES)","OBJECT_ID":"2026-067AC","EPOCH":"2026-07-15T20:27:36.742176","CLASSIFICATION_TYPE":"U","MEAN_MOTION":15.17999802,"ECCENTRICITY":0.00037261,"INCLINATION":97.4559,"RA_OF_ASC_NODE":154.8058,"ARG_OF_PERICENTER":358.1634,"MEAN_ANOMALY":1.9585,"EPHEMERIS_TYPE":0,"NORAD_CAT_ID":68442,"ELEMENT_SET_NO":999,"REV_AT_EPOCH":1628,"BSTAR":0.0001335369,"MEAN_MOTION_DOT":0.00002648,"MEAN_MOTION_DDOT":0}]}
