NUSAT-47                
1 66743U 25276CF  26196.20039908  .00003083  00000+0  14386-3 0  9991
2 66743  97.4183 269.3661 0000487 196.8829 163.2390 15.20584758 34685
NUSAT-53 (JANE GOODALL) 
1 68432U 26067S   26196.86051704  .00002800  00000+0  13765-3 0  9993
2 68432  97.4576 154.9716 0000538 342.3074  17.8141 15.18853459 16294
NUSAT-54 (BRANCA MARQU*)
1 68442U 26067AC  26196.85250859  .00002648  00000+0  13354-3 0  9999
2 68442  97.4559 154.8058 0003726 358.1634   1.9585 15.17999802 16280
